STARLINK-30494          
1 57970U 23151G   26068.36049035 -.00001272  00000+0 -35691-4 0  9993
2 57970  43.0027 192.4566 0001155 241.5536 118.5200 15.28417441137406
STARLINK-36049          
1 66805U 25278Q   26068.80694438  .00021551  00000+0  79065-3 0  9996
2 66805  42.9964 113.9982 0000215 329.7380  30.3459 15.27568749 15222
